NORAD_CAT_ID,OBJECT_NAME,OBJECT_TYPE,EPOCH,MEAN_MOTION,ECCENTRICITY,INCLINATION,RA_OF_ASC_NODE,ARG_OF_PERICENTER,MEAN_ANOMALY,BSTAR,MEAN_MOTION_DOT,MEAN_MOTION_DDOT,TLE_LINE0,TLE_LINE1,TLE_LINE2,SEMIMAJOR_AXIS,PERIOD,APOGEE,PERIGEE,DECAYED
53917.0,STARLINK-5036,PAYLOAD,2024-04-28 17:30:32,15.08836217,0.0001512,53.2156,126.602,88.4325,271.684,-4.5544e-05,-1.013e-05,0.0,0 STARLINK-5036,1 53917U 22119AH  24119.72953859 -.00001013  00000-0 -45544-4 0  9998,2 53917  53.2156 126.6020 0001512  88.4325 271.6840 15.08836217 89179,6917.892,95.438,540.803,538.711,0.0
53917.0,STARLINK-5036,PAYLOAD,2024-04-29 04:38:14,15.08839424,0.0001428,53.2149,124.5202,86.6299,273.4857,0.00016437,2.329e-05,0.0,0 STARLINK-5036,1 53917U 22119AH  24120.19321945  .00002329  00000-0  16437-3 0  9993,2 53917  53.2149 124.5202 0001428  86.6299 273.4857 15.08839424 88828,6917.882,95.438,540.735,538.759,0.0
53917.0,STARLINK-5036,PAYLOAD,2024-04-29 06:13:37,15.08838418,0.000143,53.215,124.223,87.8245,272.2911,0.0003141,4.714e-05,0.0,0 STARLINK-5036,1 53917U 22119AH  24120.25946060  .00004714  00000-0  31410-3 0  9999,2 53917  53.2150 124.2230 0001430  87.8245 272.2911 15.08838418 89253,6917.885,95.438,540.739,538.761,0.0
53917.0,STARLINK-5036,PAYLOAD,2024-04-29 17:21:19,15.08844743,0.0001462,53.2154,122.141,84.2404,275.8755,0.00042299,6.451e-05,0.0,0 STARLINK-5036,1 53917U 22119AH  24120.72314016  .00006451  00000-0  42299-3 0  9998,2 53917  53.2154 122.1410 0001462  84.2404 275.8755 15.08844743 89328,6917.866,95.437,540.742,538.719,0.0
53917.0,STARLINK-5036,PAYLOAD,2024-04-30 07:39:47,15.08846416,0.000145,53.2153,119.465,84.9414,275.1743,0.00028678,4.28e-05,0.0,0 STARLINK-5036,1 53917U 22119AH  24121.31929884  .00004280  00000-0  28678-3 0  9992,2 53917  53.2153 119.4650 0001450  84.9414 275.1743 15.08846416 88998,6917.861,95.437,540.729,538.723,0.0
53917.0,STARLINK-5036,PAYLOAD,2024-04-30 17:12:06,15.08849063,0.0001458,53.2154,117.6809,84.4164,275.6994,0.00030147,4.514e-05,0.0,0 STARLINK-5036,1 53917U 22119AH  24121.71673724  .00004514  00000-0  30147-3 0  9999,2 53917  53.2154 117.6809 0001458  84.4164 275.6994 15.08849063 89478,6917.853,95.437,540.726,538.709,0.0
53917.0,STARLINK-5036,PAYLOAD,2024-05-01 04:19:48,15.08840519,0.0001551,53.2161,115.6002,84.6425,275.4744,6.9867e-05,8.24e-06,0.0,0 STARLINK-5036,1 53917U 22119AH  24122.18042037  .00000824  00000-0  69867-4 0  9990,2 53917  53.2161 115.6002 0001551  84.6425 275.4744 15.08840519 89125,6917.879,95.438,540.817,538.671,0.0
53917.0,STARLINK-5036,PAYLOAD,2024-05-01 09:05:57,15.08844217,0.0001619,53.2171,114.7068,94.0349,266.0828,0.00012755,1.743e-05,0.0,0 STARLINK-5036,1 53917U 22119AH  24122.37913990  .00001743  00000-0  12755-3 0  9990,2 53917  53.2171 114.7068 0001619  94.0349 266.0828 15.08844217 89570,6917.867,95.437,540.853,538.612,0.0
53917.0,STARLINK-5036,PAYLOAD,2024-05-01 17:02:53,15.08845537,0.0001506,53.2163,113.2213,84.8678,275.2486,0.00012078,1.635e-05,0.0,0 STARLINK-5036,1 53917U 22119AH  24122.71033854  .00001635  00000-0  12078-3 0  9998,2 53917  53.2163 113.2213 0001506  84.8678 275.2486 15.08845537 89628,6917.863,95.437,540.77,538.687,0.0
53917.0,STARLINK-5036,PAYLOAD,2024-05-02 08:56:44,15.08844099,0.0001608,53.217,110.2461,95.1053,265.0123,9.4938e-05,1.223e-05,0.0,0 STARLINK-5036,1 53917U 22119AH  24123.37273836  .00001223  00000-0  94938-4 0  9996,2 53917  53.2170 110.2461 0001608  95.1053 265.0123 15.08844099 89305,6917.868,95.437,540.845,538.62,0.0
53917.0,STARLINK-5036,PAYLOAD,2024-05-03 08:47:31,15.08844343,0.0001523,53.2165,105.7861,92.5549,267.5617,0.00013299,1.829e-05,0.0,0 STARLINK-5036,1 53917U 22119AH  24124.36633682  .00001829  00000-0  13299-3 0  9997,2 53917  53.2165 105.7861 0001523  92.5549 267.5617 15.08844343 89878,6917.867,95.437,540.786,538.679,0.0
53917.0,STARLINK-5036,PAYLOAD,2024-05-04 05:27:33,15.08828783,0.0001372,53.217,101.9194,92.7589,267.356,-4.4212e-06,-3.58e-06,0.0,0 STARLINK-5036,1 53917U 22119AH  24125.22746966 -.00000358  00000-0 -44212-5 0  9992,2 53917  53.2170 101.9194 0001372  92.7589 267.3560 15.08828783 89582,6917.915,95.438,540.729,538.831,0.0
53917.0,STARLINK-5036,PAYLOAD,2024-05-05 05:18:19,15.08839657,0.0001227,53.2166,97.4598,100.3727,259.7404,7.1967e-05,8.58e-06,0.0,0 STARLINK-5036,1 53917U 22119AH  24126.22106379  .00000858  00000-0  71967-4 0  9990,2 53917  53.2166  97.4598 0001227 100.3727 259.7404 15.08839657 89734,6917.881,95.438,540.595,538.898,0.0
53917.0,STARLINK-5036,PAYLOAD,2024-05-05 21:12:11,15.08839544,0.000125,53.217,94.4861,102.6207,257.4925,0.00014051,1.949e-05,0.0,0 STARLINK-5036,1 53917U 22119AH  24126.88346302  .00001949  00000-0  14051-3 0  9996,2 53917  53.2170  94.4861 0001250 102.6207 257.4925 15.08839544 90250,6917.882,95.438,540.612,538.882,0.0
53917.0,STARLINK-5036,PAYLOAD,2024-05-06 06:44:29,15.08842722,0.0001282,53.2173,92.7021,102.62,257.4936,0.00022253,3.256e-05,0.0,0 STARLINK-5036,1 53917U 22119AH  24127.28090175  .00003256  00000-0  22253-3 0  9991,2 53917  53.2173  92.7021 0001282 102.6200 257.4936 15.08842722 89892,6917.872,95.437,540.624,538.85,0.0
53917.0,STARLINK-5036,PAYLOAD,2024-05-06 14:41:25,15.08850819,0.0001229,53.2173,91.2145,91.3707,268.7425,0.0002828,4.217e-05,0.0,0 STARLINK-5036,1 53917U 22119AH  24127.61209638  .00004217  00000-0  28280-3 0  9998,2 53917  53.2173  91.2145 0001229  91.3707 268.7425 15.08850819 90368,6917.847,95.437,540.563,538.862,0.0
53917.0,STARLINK-5036,PAYLOAD,2024-05-07 04:59:53,15.08844876,0.0001395,53.2167,88.5385,94.0624,266.0527,6.9453e-05,8.18e-06,0.0,0 STARLINK-5036,1 53917U 22119AH  24128.20826111  .00000818  00000-0  69453-4 0  9996,2 53917  53.2167  88.5385 0001395  94.0624 266.0527 15.08844876 90458,6917.865,95.437,540.696,538.765,0.0
53917.0,STARLINK-5036,PAYLOAD,2024-05-07 20:53:44,15.08853113,0.0001373,53.2167,85.5648,83.7298,276.3851,0.00019668,2.845e-05,0.0,0 STARLINK-5036,1 53917U 22119AH  24128.87065338  .00002845  00000-0  19668-3 0  9999,2 53917  53.2167  85.5648 0001373  83.7298 276.3851 15.08853113 90138,6917.84,95.437,540.655,538.755,0.0
53917.0,STARLINK-5036,PAYLOAD,2024-05-08 03:15:17,15.0883753,0.0001204,53.217,84.3747,87.723,272.39,-5.1614e-05,-1.109e-05,0.0,0 STARLINK-5036,1 53917U 22119AH  24129.13562236 -.00001109  00000-0 -51614-4 0  9990,2 53917  53.2170  84.3747 0001204  87.7230 272.3900 15.08837530 90172,6917.888,95.438,540.586,538.92,0.0
53917.0,STARLINK-5036,PAYLOAD,2024-05-08 06:26:03,15.08843584,0.000134,53.2168,83.7792,88.5365,271.5781,4.8664e-05,4.87e-06,0.0,0 STARLINK-5036,1 53917U 22119AH  24129.26810042  .00000487  00000-0  48664-4 0  9992,2 53917  53.2168  83.7792 0001340  88.5365 271.5781 15.08843584 90614,6917.869,95.437,540.661,538.807,0.0
53917.0,STARLINK-5036,PAYLOAD,2024-05-08 14:22:59,15.0884694,0.0001382,53.2172,82.2937,88.2063,271.9088,0.00017017,2.422e-05,0.0,0 STARLINK-5036,1 53917U 22119AH  24129.59929827  .00002422  00000-0  17017-3 0  9998,2 53917  53.2172  82.2937 0001382  88.2063 271.9088 15.08846940 90244,6917.859,95.437,540.68,538.768,0.0
53917.0,STARLINK-5036,PAYLOAD,2024-05-09 03:06:04,15.08840712,0.0001582,53.219,79.9133,100.0833,260.0337,0.00015487,2.178e-05,0.0,0 STARLINK-5036,1 53917U 22119AH  24130.12922303  .00002178  00000-0  15487-3 0  9998,2 53917  53.2190  79.9133 0001582 100.0833 260.0337 15.08840712 90321,6917.878,95.438,540.838,538.649,0.0
53917.0,STARLINK-5036,PAYLOAD,2024-05-09 06:16:51,15.08842669,0.0001609,53.2193,79.3182,100.9325,259.1849,0.00019295,2.784e-05,0.0,0 STARLINK-5036,1 53917U 22119AH  24130.26170280  .00002784  00000-0  19295-3 0  9996,2 53917  53.2193  79.3182 0001609 100.9325 259.1849 15.08842669 90765,6917.872,95.437,540.85,538.624,0.0
53917.0,STARLINK-5036,PAYLOAD,2024-05-09 14:13:46,15.0884573,0.0001595,53.2188,77.8316,99.8011,260.3161,0.00021885,3.197e-05,0.0,0 STARLINK-5036,1 53917U 22119AH  24130.59290176  .00003197  00000-0  21885-3 0  9996,2 53917  53.2188  77.8316 0001595  99.8011 260.3161 15.08845730 90812,6917.863,95.437,540.831,538.624,0.0
53917.0,STARLINK-5036,PAYLOAD,2024-05-10 02:56:52,15.08839517,0.000147,53.22,75.456,89.33,270.786,0.0002492,3.68e-05,0.0,0 STARLINK-5036,1 53917U 22119AH  24131.12282716  .00003680  00000-0  24920-3 0  9997,2 53917  53.2200  75.4560 0001470  89.3300 270.7860 15.08839517 90478,6917.882,95.438,540.764,538.73,0.0
53917.0,STARLINK-5036,PAYLOAD,2024-05-10 06:07:38,15.08843346,0.0001506,53.2189,74.8591,92.5198,267.5967,0.00017755,2.539e-05,0.0,0 STARLINK-5036,1 53917U 22119AH  24131.25530464  .00002539  00000-0  17755-3 0  9997,2 53917  53.2189  74.8591 0001506  92.5198 267.5967 15.08843346 90918,6917.87,95.437,540.777,538.693,0.0
53917.0,STARLINK-5036,PAYLOAD,2024-05-11 12:19:54,15.0891818,0.0001282,53.2183,69.21,110.792,249.321,0.001378,0.00021758,0.0,0 STARLINK-5036,1 53917U 22119AH  24132.51382489  .00021758  00000-0  13780-2 0  9996,2 53917  53.2183  69.2100 0001282 110.7920 249.3210 15.08918180 90685,6917.641,95.433,540.393,538.62,0.0
53917.0,STARLINK-5036,PAYLOAD,2024-05-11 20:16:52,15.0885262,0.0002261,53.2185,67.7215,101.0072,259.1174,-4.6029e-05,-1.021e-05,0.0,0 STARLINK-5036,1 53917U 22119AH  24132.84504695 -.00001021  00000-0 -46029-4 0  9994,2 53917  53.2185  67.7215 0002261 101.0072 259.1174 15.08852620 90736,6917.842,95.437,541.271,538.143,0.0
53917.0,STARLINK-5036,PAYLOAD,2024-05-12 02:38:25,15.08804461,0.0001286,53.2184,66.5331,93.5787,266.5353,-0.0014938,-0.0002396,0.0,0 STARLINK-5036,1 53917U 22119AH  24133.11001910 -.00023960  00000-0 -14938-2 0  9995,2 53917  53.2184  66.5331 0001286  93.5787 266.5353 15.08804461 90770,6917.989,95.44,540.744,538.964,0.0
53917.0,STARLINK-5036,PAYLOAD,2024-05-12 12:10:45,15.0879699,0.0001495,53.2191,64.7515,103.7632,256.3527,-0.0011841,-0.00019061,0.0,0 STARLINK-5036,1 53917U 22119AH  24133.50746967 -.00019061  00000-0 -11841-2 0  9993,2 53917  53.2191  64.7515 0001495 103.7632 256.3527 15.08796990 91258,6918.012,95.44,540.911,538.843,0.0
